0 FENGYUN 1C DEB
1 31276U 99025BNJ 13280.40934835  .00009263  00000-0  15461-2 0  5292
2 31276 098.6705 342.2852 0234530 307.0257 050.9685 14.53592854344913
0 FENGYUN 1C DEB
1 31276U 99025BNJ 13282.40551096  .00017571  00000-0  29174-2 0  5307
2 31276 098.6700 344.3529 0234353 300.8994 056.9346 14.53649004345207
0 FENGYUN 1C DEB
1 31276U 99025BNJ 13283.36914737  .00015534  00000-0  25790-2 0  5316
2 31276 098.6719 345.3508 0234469 298.0446 059.7214 14.53668777345341
0 FENGYUN 1C DEB
1 31276U 99025BNJ 13285.36520760  .00012442  00000-0  20663-2 0  5338
2 31276 098.6719 347.4208 0234513 291.8790 065.7618 14.53710834345633
0 FENGYUN 1C DEB
1 31276U 99025BNJ 13287.43003742  .00014854  00000-0  24608-2 0  5347
2 31276 098.6722 349.5598 0234547 285.5329 072.0084 14.53756406345933
0 FENGYUN 1C DEB
1 31276U 99025BNJ 13291.42179207  .00018372  00000-0  30309-2 0  5356
2 31276 098.6711 353.6976 0234380 273.3092 084.1317 14.53896161346515
0 FENGYUN 1C DEB
1 31276U 99025BNJ 13293.41753598  .00020277  00000-0  33546-2 0  5362
2 31276 098.6755 355.7751 0232809 266.3962 091.0584 14.53958649346804
